ASTROCAST-0403          
1 55111U 23001DG  26068.82333059  .00013959  00000+0  51317-3 0  9990
2 55111  97.5604 161.3228 0004771 338.0704  22.0330 15.28004949129377
STARLINK-34169          
1 63999U 25101F   26068.20851524  .00033841  00000+0  12346-2 0  9990
2 63999  43.0053   0.5107 0001919 260.2441  99.8194 15.27555344 46983
